NORAD_CAT_ID,OBJECT_NAME,OBJECT_TYPE,EPOCH,MEAN_MOTION,ECCENTRICITY,INCLINATION,RA_OF_ASC_NODE,ARG_OF_PERICENTER,MEAN_ANOMALY,BSTAR,MEAN_MOTION_DOT,MEAN_MOTION_DDOT,TLE_LINE0,TLE_LINE1,TLE_LINE2,SEMIMAJOR_AXIS,PERIOD,APOGEE,PERIGEE,DECAYED
51891.0,STARLINK-3549,PAYLOAD,2023-03-14 12:07:28,15.08852074,0.0001124,53.2143,217.6379,85.3198,274.7923,0.0012841,0.00020214,0.0,0 STARLINK-3549,1 51891U 22022AR  23073.50518693  .00020214  00000-0  12841-2 0  9991,2 51891  53.2143 217.6379 0001124  85.3198 274.7923 15.08852074 58569,6917.843,95.437,540.486,538.931,0.0
51891.0,STARLINK-3549,PAYLOAD,2023-03-14 20:04:23,15.08873679,0.0001151,53.214,216.151,83.4955,276.6168,0.0026469,0.00042128,0.0,0 STARLINK-3549,1 51891U 22022AR  23073.83638334  .00042128  00000-0  26469-2 0  9991,2 51891  53.2140 216.1510 0001151  83.4955 276.6168 15.08873679 58619,6917.777,95.435,540.439,538.846,0.0
51891.0,STARLINK-3549,PAYLOAD,2023-03-14 21:39:46,15.0887919,0.0001165,53.2139,215.8536,82.3801,277.7324,0.0026628,0.00042391,0.0,0 STARLINK-3549,1 51891U 22022AR  23073.90262175  .00042391  00000-0  26628-2 0  9994,2 51891  53.2139 215.8536 0001165  82.3801 277.7324 15.08879190 58625,6917.761,95.435,540.432,538.82,0.0
51891.0,STARLINK-3549,PAYLOAD,2023-03-15 02:25:56,15.08842351,0.0001318,53.2137,214.9612,90.9357,269.1786,9.693e-05,1.255e-05,0.0,0 STARLINK-3549,1 51891U 22022AR  23074.10134574  .00001255  00000-0  96930-4 0  9997,2 51891  53.2137 214.9612 0001318  90.9357 269.1786 15.08842351 58658,6917.873,95.437,540.65,538.826,0.0
51891.0,STARLINK-3549,PAYLOAD,2023-03-15 11:58:14,15.08873084,0.0001362,53.2134,213.1771,92.2903,267.8245,0.002152,0.00034159,0.0,0 STARLINK-3549,1 51891U 22022AR  23074.49878149  .00034159  00000-0  21520-2 0  9992,2 51891  53.2134 213.1771 0001362  92.2903 267.8245 15.08873084 58712,6917.779,95.435,540.586,538.702,0.0
51891.0,STARLINK-3549,PAYLOAD,2023-03-16 02:16:42,15.08821444,0.0001384,53.2132,210.5008,131.6058,228.5053,-0.0025809,-0.00041108,0.0,0 STARLINK-3549,1 51891U 22022AR  23075.09493349 -.00041108  00000-0 -25809-2 0  9992,2 51891  53.2132 210.5008 0001384 131.6058 228.5053 15.08821444 58801,6917.937,95.439,540.76,538.845,0.0
51891.0,STARLINK-3549,PAYLOAD,2023-03-16 08:38:15,15.08816287,0.0001317,53.213,209.3109,138.3951,221.7141,0.00021165,3.08e-05,0.0,0 STARLINK-3549,1 51891U 22022AR  23075.35990087  .00003080  00000-0  21165-3 0  9999,2 51891  53.2130 209.3109 0001317 138.3951 221.7141 15.08816287 58845,6917.953,95.439,540.729,538.907,0.0
51891.0,STARLINK-3549,PAYLOAD,2023-03-17 02:07:30,15.08793092,6.39e-05,53.2135,206.0402,188.4039,171.6942,0.0025017,0.000397,0.0,0 STARLINK-3549,1 51891U 22022AR  23076.08855263  .00039700  00000-0  25017-2 0  9993,2 51891  53.2135 206.0402 0000639 188.4039 171.6942 15.08793092 58951,6918.024,95.441,540.331,539.447,0.0
51891.0,STARLINK-3549,PAYLOAD,2023-03-17 14:50:37,15.08837935,0.0001192,53.2123,203.6612,102.2876,257.8249,0.0024652,0.00039162,0.0,0 STARLINK-3549,1 51891U 22022AR  23076.61848498  .00039162  00000-0  24652-2 0  9990,2 51891  53.2123 203.6612 0001192 102.2876 257.8249 15.08837935 59034,6917.887,95.438,540.576,538.927,0.0
51891.0,STARLINK-3549,PAYLOAD,2023-03-17 18:01:23,15.08846847,0.0001123,53.2125,203.0665,102.2312,257.8806,0.0024411,0.00038783,0.0,0 STARLINK-3549,1 51891U 22022AR  23076.75096479  .00038783  00000-0  24411-2 0  9990,2 51891  53.2125 203.0665 0001123 102.2312 257.8806 15.08846847 59050,6917.859,95.437,540.501,538.948,0.0
51891.0,STARLINK-3549,PAYLOAD,2023-03-18 01:58:19,15.08851761,0.0001515,53.2139,201.5802,94.924,265.1925,0.001545,0.00024394,0.0,0 STARLINK-3549,1 51891U 22022AR  23077.08216437  .00024394  00000-0  15450-2 0  9991,2 51891  53.2139 201.5802 0001515  94.9240 265.1925 15.08851761 59104,6917.844,95.437,540.757,538.661,0.0
51891.0,STARLINK-3549,PAYLOAD,2023-03-18 17:52:09,15.0888263,0.0001374,53.2148,198.6073,93.9183,266.1966,0.001521,0.0002403,0.0,0 STARLINK-3549,1 51891U 22022AR  23077.74455244  .00024030  00000-0  15210-2 0  9996,2 51891  53.2148 198.6073 0001374  93.9183 266.1966 15.08882630 59204,6917.75,95.435,540.566,538.665,0.0
51891.0,STARLINK-3549,PAYLOAD,2023-03-19 14:32:09,15.08863691,0.000128,53.2144,194.7404,76.6624,283.4511,0.00066095,0.00010253,0.0,0 STARLINK-3549,1 51891U 22022AR  23078.60566869  .00010253  00000-0  66095-3 0  9998,2 51891  53.2144 194.7404 0001280  76.6624 283.4511 15.08863691 59337,6917.808,95.436,540.558,538.787,0.0
51891.0,STARLINK-3549,PAYLOAD,2023-03-19 19:18:18,15.08871704,0.0001316,53.2147,193.8483,78.455,281.659,0.00099963,0.00015671,0.0,0 STARLINK-3549,1 51891U 22022AR  23078.80438484  .00015671  00000-0  99963-3 0  9990,2 51891  53.2147 193.8483 0001316  78.4550 281.6590 15.08871704 59369,6917.783,95.436,540.559,538.738,0.0
51891.0,STARLINK-3549,PAYLOAD,2023-03-20 00:04:28,15.0883339,0.0001285,53.2158,192.957,89.0469,271.067,-0.0002092,-3.615e-05,0.0,0 STARLINK-3549,1 51891U 22022AR  23079.00310830 -.00003615  00000-0 -20920-3 0  9991,2 51891  53.2158 192.9570 0001285  89.0469 271.0670 15.08833390 59394,6917.901,95.438,540.655,538.877,0.0
51891.0,STARLINK-3549,PAYLOAD,2023-03-20 12:47:33,15.08852934,0.0001175,53.2157,190.5784,79.6132,280.4992,0.0017882,0.00028296,0.0,0 STARLINK-3549,1 51891U 22022AR  23079.53302985  .00028296  00000-0  17882-2 0  9993,2 51891  53.2157 190.5784 0001175  79.6132 280.4992 15.08852934 59479,6917.841,95.437,540.519,538.893,0.0
51891.0,STARLINK-3549,PAYLOAD,2023-03-20 15:58:19,15.0886538,0.0001208,53.2156,189.9833,80.9585,279.1544,0.0024981,0.00039721,0.0,0 STARLINK-3549,1 51891U 22022AR  23079.66550803  .00039721  00000-0  24981-2 0  9994,2 51891  53.2156 189.9833 0001208  80.9585 279.1544 15.08865380 59498,6917.803,95.436,540.503,538.832,0.0
51891.0,STARLINK-3549,PAYLOAD,2023-03-21 06:16:48,15.08848848,0.0001971,53.2172,187.3092,99.8565,260.2649,0.00093275,0.00014591,0.0,0 STARLINK-3549,1 51891U 22022AR  23080.26167101  .00014591  00000-0  93275-3 0  9998,2 51891  53.2172 187.3092 0001971  99.8565 260.2649 15.08848848 59586,6917.853,95.437,541.082,538.355,0.0
51891.0,STARLINK-3549,PAYLOAD,2023-03-21 12:38:21,15.0884097,0.0001765,53.2167,186.1191,101.0265,259.0925,0.00080995,0.00012626,0.0,0 STARLINK-3549,1 51891U 22022AR  23080.52663235  .00012626  00000-0  80995-3 0  9998,2 51891  53.2167 186.1191 0001765 101.0265 259.0925 15.08840970 59627,6917.877,95.437,540.963,538.521,0.0
51891.0,STARLINK-3549,PAYLOAD,2023-03-22 12:29:08,15.08843993,0.00015,53.2158,181.6586,89.5882,270.5282,0.00057193,8.827e-05,0.0,0 STARLINK-3549,1 51891U 22022AR  23081.52023340  .00008827  00000-0  57193-3 0  9998,2 51891  53.2158 181.6586 0001500  89.5882 270.5282 15.08843993 59775,6917.868,95.437,540.771,538.696,0.0
51891.0,STARLINK-3549,PAYLOAD,2023-03-22 15:39:54,15.08848575,0.0001636,53.2156,181.0649,82.7445,277.3733,0.0015776,0.00024915,0.0,0 STARLINK-3549,1 51891U 22022AR  23081.65271410  .00024915  00000-0  15776-2 0  9991,2 51891  53.2156 181.0649 0001636  82.7445 277.3733 15.08848575 59796,6917.854,95.437,540.851,538.587,0.0
51891.0,STARLINK-3549,PAYLOAD,2023-03-23 12:19:55,15.08852201,0.0001473,53.2144,177.1976,83.4687,276.6472,0.001033,0.00016196,0.0,0 STARLINK-3549,1 51891U 22022AR  23082.51383476  .00016196  00000-0  10330-2 0  9996,2 51891  53.2144 177.1976 0001473  83.4687 276.6472 15.08852201 59925,6917.843,95.437,540.727,538.689,0.0
51891.0,STARLINK-3549,PAYLOAD,2023-03-23 13:55:18,15.08858599,0.0001497,53.2144,176.9,88.3801,271.7363,0.0012762,0.00020091,0.0,0 STARLINK-3549,1 51891U 22022AR  23082.58007348  .00020091  00000-0  12762-2 0  9994,2 51891  53.2144 176.9000 0001497  88.3801 271.7363 15.08858599 59930,6917.824,95.436,540.724,538.653,0.0
51891.0,STARLINK-3549,PAYLOAD,2023-03-24 05:49:09,15.08927586,0.0001673,53.2146,173.9277,87.6234,272.4949,0.0046552,0.00074766,0.0,0 STARLINK-3549,1 51891U 22022AR  23083.24246684  .00074766  00000-0  46552-2 0  9998,2 51891  53.2146 173.9277 0001673  87.6234 272.4949 15.08927586 60037,6917.613,95.432,540.635,538.32,0.0
51891.0,STARLINK-3549,PAYLOAD,2023-03-24 12:10:41,15.08886805,0.0001701,53.2149,172.7377,86.2668,273.8518,0.0025453,0.00040506,0.0,0 STARLINK-3549,1 51891U 22022AR  23083.50742677  .00040506  00000-0  25453-2 0  9992,2 51891  53.2149 172.7377 0001701  86.2668 273.8518 15.08886805 60075,6917.737,95.435,540.779,538.426,0.0
51891.0,STARLINK-3549,PAYLOAD,2023-03-24 15:21:27,15.08910797,0.0001535,53.2152,172.1419,91.402,268.7148,0.003045,0.00048602,0.0,0 STARLINK-3549,1 51891U 22022AR  23083.63989894  .00048602  00000-0  30450-2 0  9998,2 51891  53.2152 172.1419 0001535  91.4020 268.7148 15.08910797 60097,6917.664,95.433,540.591,538.467,0.0
51891.0,STARLINK-3549,PAYLOAD,2023-03-24 23:18:22,15.08866463,0.0001517,53.2141,170.6563,81.7854,278.331,0.00015912,2.247e-05,0.0,0 STARLINK-3549,1 51891U 22022AR  23083.97109867  .00002247  00000-0  15912-3 0  9991,2 51891  53.2141 170.6563 0001517  81.7854 278.3310 15.08866463 60149,6917.8,95.436,540.714,538.615,0.0
51891.0,STARLINK-3549,PAYLOAD,2023-03-25 12:01:28,15.08834234,0.0001297,53.2142,168.2759,99.5829,260.531,0.0011699,0.00018377,0.0,0 STARLINK-3549,1 51891U 22022AR  23084.50102475  .00018377  00000-0  11699-2 0  9997,2 51891  53.2142 168.2759 0001297  99.5829 260.5310 15.08834234 60227,6917.898,95.438,540.66,538.866,0.0
51891.0,STARLINK-3549,PAYLOAD,2023-03-25 16:47:37,15.08849406,0.0001387,53.2146,167.3814,114.4677,245.646,0.0021816,0.00034612,0.0,0 STARLINK-3549,1 51891U 22022AR  23084.69974311  .00034612  00000-0  21816-2 0  9995,2 51891  53.2146 167.3814 0001387 114.4677 245.6460 15.08849406 60251,6917.852,95.437,540.676,538.757,0.0
51891.0,STARLINK-3549,PAYLOAD,2023-03-26 11:52:16,15.08818773,0.0001344,53.215,163.8133,113.8586,246.2547,0.0010014,0.00015676,0.0,0 STARLINK-3549,1 51891U 22022AR  23085.49463909  .00015676  00000-0  10014-2 0  9997,2 51891  53.2150 163.8133 0001344 113.8586 246.2547 15.08818773 60375,6917.945,95.439,540.74,538.881,0.0
